STARLINK-30161          
1 57476U 23107V   26067.13764376 -.00000917  00000+0 -24473-4 0  9992
2 57476  43.0039 344.5252 0002807 264.6186  95.4345 15.26741769144912
TROLL                   
1 62658U 25009BB  26068.22522958  .00013174  00000+0  48220-3 0  9994
2 62658  97.3932 150.7169 0001816  59.1850 300.9568 15.28164315118170
